MEAN_MOTION;ECCENTRICITY;INCLINATION;RA_OF_ASC_NODE;ARG_OF_PERICENTER;MEAN_ANOMALY;BSTAR;MEAN_MOTION_DOT;MEAN_MOTION_DDOT;TYPE
2.005694;0.0092254;56.2524;20.8104;77.4422;180.9347;0;-6.3E-7;0;Navigation
2.0056938;0.0092272;56.2525;20.7918;77.4577;161.1134;0;-6.6E-7;0;Navigation
2.0056938;0.0092272;56.2525;20.7918;77.4577;161.1134;0;-6.6E-7;0;Navigation
2.00569366;0.0092284;56.2526;20.7732;77.4739;143.7415;0;-6.8E-7;0;Navigation
2.00569354;0.0092291;56.2526;20.7553;77.4895;112.4847;0;-7.1E-7;0;Navigation
2.00569335;0.0092315;56.2528;20.7265;77.5195;281.1096;0;-7.5E-7;0;Navigation
2.00569326;0.0092325;56.2529;20.7069;77.5352;280.2419;0;-7.7E-7;0;Navigation
2.00569322;0.0092337;56.2529;20.6935;77.544;166.1249;0;-7.9E-7;0;Navigation
2.00569311;0.0092353;56.2531;20.6674;77.5683;285.961;0;-8.1E-7;0;Navigation
2.00569311;0.0092353;56.2531;20.6674;77.5683;285.961;0;-8.1E-7;0;Navigation
2.00569303;0.0092388;56.2533;20.6139;77.6146;188.4402;0;-8.5E-7;0;Navigation
2.00569303;0.0092399;56.2534;20.5953;77.631;169.0053;0;-8.6E-7;0;Navigation
2.00569303;0.0092417;56.2535;20.574;77.6504;199.7353;0;-8.7E-7;0;Navigation
2.00569303;0.0092417;56.2535;20.574;77.6504;199.7353;0;-8.7E-7;0;Navigation
2.0056931;0.0092444;56.2537;20.5368;77.6832;163.2643;0;-8.8E-7;0;Navigation
2.00569319;0.009248;56.2538;20.4971;77.7197;173.5784;0;-9.0E-7;0;Navigation
2.00569326;0.0092499;56.2539;20.476;77.7397;201.0433;0;-9.0E-7;0;Navigation
2.00569332;0.0092518;56.254;20.4572;77.7572;186.1436;0;-9.1E-7;0;Navigation
2.00569338;0.0092524;56.254;20.4423;77.7715;99.7384;0;-9.2E-7;0;Navigation
2.00569338;0.0092524;56.254;20.4423;77.7715;99.7384;0;-9.2E-7;0;Navigation
2.00569348;0.0092536;56.2542;20.4173;77.7957;197.7624;0;-9.3E-7;0;Navigation
2.00569348;0.0092536;56.2542;20.4173;77.7957;197.7624;0;-9.3E-7;0;Navigation
2.00569363;0.0092562;56.2543;20.3801;77.8299;160.8508;0;-9.6E-7;0;Navigation
2.0056937;0.009257;56.2544;20.3588;77.8515;191.4907;0;-9.7E-7;0;Navigation
2.00569383;0.0092595;56.2545;20.3221;77.8856;146.447;0;-9.9E-7;0;Navigation
2.00569383;0.0092595;56.2545;20.3221;77.8856;146.447;0;-9.9E-7;0;Navigation
2.0056938;0.0092642;56.2548;20.2608;77.9413;191.9656;0;-1.01E-6;0;Navigation
2.00569384;0.009264;56.2548;20.2457;77.9525;109.7127;0;-1.01E-6;0;Navigation
2.00569385;0.0092653;56.2549;20.2236;77.9719;156.6989;0;-1.01E-6;0;Navigation
2.00569384;0.0092672;56.255;20.2025;77.9917;184.7821;0;-1.0E-6;0;Navigation
2.00569378;0.0092704;56.2552;20.1626;78.0299;198.109;0;-9.7E-7;0;Navigation
2.00569364;0.0092733;56.2553;20.1228;78.0687;209.7056;0;-9.3E-7;0;Navigation
2.00569364;0.0092733;56.2553;20.1228;78.0687;209.7056;0;-9.3E-7;0;Navigation
2.00569343;0.0092753;56.2555;20.0856;78.1049;172.8887;0;-8.8E-7;0;Navigation
2.00569343;0.0092753;56.2555;20.0856;78.1049;172.8887;0;-8.8E-7;0;Navigation
2.00569324;0.0092741;56.2554;20.0856;78.108;172.8854;0;-8.8E-7;0;Navigation
2.00569324;0.0092741;56.2554;20.0856;78.108;172.8854;0;-8.8E-7;0;Navigation
2.00585802;0.0095368;56.3097;19.7997;78.5401;214.3019;0;-7.4E-7;0;Navigation
2.00569208;0.0092818;56.2559;19.9531;78.2374;87.9552;0;-7.0E-7;0;Navigation
2.00569203;0.0092821;56.2559;19.9476;78.2409;188.7746;0;-7.0E-7;0;Navigation
2.00569185;0.0092828;56.256;19.9335;78.2563;87.8373;0;-6.8E-7;0;Navigation
2.00569185;0.0092828;56.256;19.9335;78.2563;87.8373;0;-6.8E-7;0;Navigation
2.00569181;0.0092823;56.256;19.929;78.2551;169.5469;0;-6.8E-7;0;Navigation
2.00569091;0.0092853;56.2563;19.8522;78.3295;141.2908;0;-6.5E-7;0;Navigation
2.00569091;0.0092853;56.2563;19.8522;78.3295;141.2908;0;-6.5E-7;0;Navigation
2.00569091;0.0092853;56.2563;19.8522;78.3295;141.2908;0;-6.5E-7;0;Navigation
2.0056902;0.0092881;56.2565;19.7909;78.3913;187.4664;0;-6.7E-7;0;Navigation
2.0056902;0.0092881;56.2565;19.7909;78.3913;187.4664;0;-6.7E-7;0;Navigation
2.00568974;0.0092909;56.2567;19.751;78.435;199.6647;0;-7.1E-7;0;Navigation
2.00568974;0.0092909;56.2567;19.751;78.435;199.6647;0;-7.1E-7;0;Navigation
2.00568937;0.0092945;56.2568;19.7114;78.4804;206.7649;0;-7.5E-7;0;Navigation
2.00568914;0.009299;56.257;19.6741;78.5243;172.4509;0;-8.0E-7;0;Navigation
2.005689;0.0093007;56.2571;19.6528;78.5488;202.9204;0;-8.3E-7;0;Navigation
2.00568884;0.0093021;56.2572;19.6157;78.5859;163.7853;0;-8.7E-7;0;Navigation
2.00568884;0.0093021;56.2572;19.6157;78.5859;163.7853;0;-8.7E-7;0;Navigation
2.00568868;0.0093078;56.2576;19.5146;78.6947;218.2422;0;-9.3E-7;0;Navigation
2.00568871;0.0093099;56.2577;19.4959;78.7163;201.7097;0;-9.4E-7;0;Navigation
2.00568871;0.0093099;56.2577;19.4959;78.7163;201.7097;0;-9.4E-7;0;Navigation
2.00568884;0.0093135;56.2579;19.4375;78.7801;194.2081;0;-9.6E-7;0;Navigation
2.00568889;0.0093157;56.258;19.4165;78.8054;219.7198;0;-9.6E-7;0;Navigation
2.00568889;0.0093157;56.258;19.4165;78.8054;219.7198;0;-9.6E-7;0;Navigation
2.00568909;0.0093181;56.2582;19.3607;78.8655;165.0677;0;-9.9E-7;0;Navigation
2.00568918;0.0093194;56.2583;19.3392;78.8898;198.3236;0;-1.0E-6;0;Navigation
2.00568933;0.0093221;56.2585;19.3024;78.9324;154.2705;0;-1.02E-6;0;Navigation
2.00568933;0.0093221;56.2585;19.3024;78.9324;154.2705;0;-1.02E-6;0;Navigation
2.00568943;0.0093233;56.2585;19.2809;78.9564;190.2765;0;-1.03E-6;0;Navigation
2.00568951;0.0093247;56.2586;19.2596;78.9805;219.3824;0;-1.05E-6;0;Navigation
2.00568957;0.0093257;56.2587;19.241;79.001;201.6796;0;-1.06E-6;0;Navigation
2.00568964;0.009327;56.2588;19.2198;79.0242;230.9422;0;-1.06E-6;0;Navigation
2.00568964;0.009327;56.2588;19.2198;79.0242;230.9422;0;-1.06E-6;0;Navigation
2.00568974;0.0093295;56.259;19.168;79.0814;102.3202;0;-1.06E-6;0;Navigation
2.00568976;0.0093309;56.2591;19.1428;79.1079;205.1351;0;-1.06E-6;0;Navigation
2.00568976;0.0093336;56.2592;19.103;79.1532;215.9796;0;-1.03E-6;0;Navigation
2.00568967;0.0093353;56.2594;19.0662;79.1948;171.5426;0;-9.9E-7;0;Navigation
2.00568951;0.0093371;56.2595;19.0264;79.2401;183.9915;0;-9.4E-7;0;Navigation
2.00568942;0.009338;56.2596;19.0094;79.2603;135.6681;0;-9.1E-7;0;Navigation
2.00568928;0.0093392;56.2597;18.9861;79.2862;204.1725;0;-8.8E-7;0;Navigation
2.00568915;0.00934;56.2598;18.9676;79.3082;182.8198;0;-8.5E-7;0;Navigation
2.00568915;0.00934;56.2598;18.9676;79.3082;182.8198;0;-8.5E-7;0;Navigation
2.00568881;0.0093415;56.2599;18.9277;79.3536;196.6492;0;-7.9E-7;0;Navigation
2.00568863;0.0093427;56.26;18.9105;79.3768;153.2916;0;-7.7E-7;0;Navigation
2.00568843;0.0093435;56.2601;18.8881;79.4008;203.5345;0;-7.4E-7;0;Navigation
2.00568825;0.0093444;56.2601;18.8736;79.4208;109.271;0;-7.2E-7;0;Navigation
2.00568825;0.0093444;56.2601;18.8736;79.4208;109.271;0;-7.2E-7;0;Navigation
2.005688;0.0093456;56.2602;18.8509;79.4465;166.855;0;-7.0E-7;0;Navigation
2.00568757;0.0093476;56.2603;18.8153;79.4918;101.2549;0;-6.8E-7;0;Navigation
2.00568757;0.0093476;56.2603;18.8153;79.4918;101.2549;0;-6.8E-7;0;Navigation
2.00568709;0.0093495;56.2605;18.7715;79.5406;184.6766;0;-6.6E-7;0;Navigation
2.00568709;0.0093495;56.2605;18.7715;79.5406;184.6766;0;-6.6E-7;0;Navigation
2.00568645;0.0093523;56.2608;18.713;79.6079;179.5778;0;-6.8E-7;0;Navigation
2.00568609;0.0093535;56.2609;18.6731;79.6553;191.6215;0;-7.1E-7;0;Navigation
2.00568574;0.0093557;56.2611;18.6331;79.7069;206.9534;0;-7.5E-7;0;Navigation
2.00568565;0.0093533;56.2612;18.6118;79.7218;236.7483;0;-7.7E-7;0;Navigation
2.00568565;0.0093533;56.2612;18.6118;79.7218;236.7483;0;-7.7E-7;0;Navigation
2.00568543;0.0093543;56.2614;18.5719;79.7674;249.0132;0;-8.2E-7;0;Navigation
2.00568543;0.0093543;56.2614;18.5719;79.7674;249.0132;0;-8.2E-7;0;Navigation
2.00568527;0.0093559;56.2615;18.5349;79.8113;207.5768;0;-8.5E-7;0;Navigation
2.00568521;0.0093571;56.2616;18.5165;79.8334;186.4148;0;-8.6E-7;0;Navigation
2.00568516;0.0093579;56.2617;18.4948;79.8624;223.5681;0;-8.8E-7;0;Navigation
2.00568514;0.0093589;56.2618;18.4764;79.885;200.496;0;-8.9E-7;0;Navigation
2.00568513;0.0093606;56.2619;18.455;79.9166;233.2453;0;-8.9E-7;0;Navigation
2.00568513;0.0093622;56.262;18.423;79.9546;102.3945;0;-9.0E-7;0;Navigation
2.00568514;0.0093623;56.2621;18.4134;79.966;278.3847;0;-9.1E-7;0;Navigation
2.00568514;0.0093623;56.2621;18.4134;79.966;278.3847;0;-9.1E-7;0;Navigation
2.00568529;0.0093658;56.2623;18.3623;80.0295;137.164;0;-9.2E-7;0;Navigation
2.00568534;0.0093669;56.2624;18.335;80.065;278.4029;0;-9.3E-7;0;Navigation
2.00568542;0.0093679;56.2625;18.3242;80.0746;115.8428;0;-9.3E-7;0;Navigation
2.00568557;0.0093698;56.2626;18.2859;80.1253;99.6843;0;-9.5E-7;0;Navigation
2.00568585;0.0093698;56.2628;18.2398;80.174;226.382;0;-9.8E-7;0;Navigation
2.00568597;0.0093715;56.263;18.2028;80.2249;187.0487;0;-1.0E-6;0;Navigation
2.00568613;0.0093732;56.2632;18.163;80.2762;197.472;0;-1.02E-6;0;Navigation
2.00568627;0.0093755;56.2634;18.1096;80.3458;99.2275;0;-1.03E-6;0;Navigation
2.00568632;0.0093743;56.2634;18.1016;80.344;246.2472;0;-1.03E-6;0;Navigation
2.00568637;0.0093757;56.2635;18.0703;80.3863;99.9773;0;-1.02E-6;0;Navigation
2.00568638;0.0093759;56.2636;18.0618;80.3954;256.4915;0;-1.01E-6;0;Navigation
2.00568639;0.0093765;56.2637;18.0436;80.4182;231.1153;0;-1.0E-6;0;Navigation
2.00568638;0.009377;56.2638;18.0251;80.4417;210.6005;0;-9.8E-7;0;Navigation
2.00568635;0.0093776;56.2639;18.0037;80.4679;243.3193;0;-9.6E-7;0;Navigation
2.00568631;0.0093785;56.2639;17.9852;80.4951;222.7867;0;-9.4E-7;0;Navigation
2.00568623;0.0093791;56.264;17.9638;80.5216;256.8722;0;-9.1E-7;0;Navigation
2.00568604;0.0093802;56.2642;17.9268;80.5724;215.464;0;-8.5E-7;0;Navigation
2.00568589;0.0093818;56.2643;17.905;80.6095;255.5565;0;-8.1E-7;0;Navigation
2.00568576;0.0093821;56.2644;17.8868;80.6346;230.9159;0;-7.9E-7;0;Navigation
2.0056856;0.0093809;56.2645;17.8655;80.648;260.8655;0;-7.5E-7;0;Navigation
2.00568531;0.0093825;56.2646;17.835;80.7023;100.0133;0;-7.1E-7;0;Navigation
2.00568526;0.0093829;56.2647;17.8282;80.7095;225.4706;0;-7.0E-7;0;Navigation
2.00568526;0.0093829;56.2647;17.8282;80.7095;225.4706;0;-7.0E-7;0;Navigation
2.00568468;0.0093825;56.265;17.7568;80.7838;98.0776;0;-6.2E-7;0;Navigation
2.00568459;0.0093831;56.265;17.7484;80.796;251.171;0;-6.2E-7;0;Navigation
